[{"OBJECT_NAME":"STARLINK-30712","OBJECT_ID":"2023-148A","EPOCH":"2026-03-09T22:00:01.999584","MEAN_MOTION":15.30193659,"ECCENTRICITY":0.00010393,"INCLINATION":53.1615,"RA_OF_ASC_NODE":23.1448,"ARG_OF_PERICENTER":101.5333,"MEAN_ANOMALY":70.6949,"EPHEMERIS_TYPE":0,"CLASSIFICATION_TYPE":"U","NORAD_CAT_ID":57935,"ELEMENT_SET_NO":999,"REV_AT_EPOCH":586,"BSTAR":0.00078884182,"MEAN_MOTION_DOT":0.00023072,"MEAN_MOTION_DDOT":0},{"OBJECT_NAME":"CZ-2C R\/B","OBJECT_ID":"2023-032C","EPOCH":"2026-03-09T19:42:47.332224","MEAN_MOTION":15.40353492,"ECCENTRICITY":0.00338763,"INCLINATION":97.5715,"RA_OF_ASC_NODE":173.3039,"ARG_OF_PERICENTER":15.3476,"MEAN_ANOMALY":344.8789,"EPHEMERIS_TYPE":0,"CLASSIFICATION_TYPE":"U","NORAD_CAT_ID":55846,"ELEMENT_SET_NO":999,"REV_AT_EPOCH":16638,"BSTAR":0.00042068091,"MEAN_MOTION_DOT":0.00017253,"MEAN_MOTION_DDOT":0}]
